{
  "type": "FeatureCollection",
  "features": [
    {
      "type": "Feature",
      "properties": {
        "norad_id": 37694,
        "name": "FENGYUN 1C DEB",
        "group": "fengyun-1c-debris",
        "lat": 50.627337372715886,
        "lon": 53.67835587442635,
        "alt_km": 727.9048636863763,
        "timestamp": "2025-12-22T23:36:21.003129+00:00",
        "meta_object_name": "FENGYUN 1C DEB",
        "meta_object_id": "1999-025ELK",
        "meta_epoch": "2025-12-14T10:20:27.757248",
        "meta_mean_motion": 14.16668534,
        "meta_eccentricity": 0.01472645,
        "meta_inclination": 98.1988,
        "meta_ra_of_asc_node": 55.9107,
        "meta_arg_of_pericenter": 88.6122,
        "meta_mean_anomaly": 288.1431,
        "meta_ephemeris_type": 0,
        "meta_classification_type": "U",
        "meta_norad_cat_id": 37694,
        "meta_element_set_no": 999,
        "meta_rev_at_epoch": 51728,
        "meta_bstar": 0.0018272074,
        "meta_mean_motion_dot": 4.021e-05,
        "meta_mean_motion_ddot": 0,
        "tle_line1": "1 37694U 99025ELK 25348.43087682  .00004021  00000+0  18272-2 0  9992",
        "tle_line2": "2 37694  98.1988  55.9107 0147264  88.6122 288.1431 14.16668534517286"
      },
      "geometry": {
        "type": "Point",
        "coordinates": [
          53.67835587442635,
          50.627337372715886
        ]
      }
    },
    {
      "type": "Feature",
      "properties": {
        "norad_id": 37695,
        "name": "FENGYUN 1C DEB",
        "group": "fengyun-1c-debris",
        "lat": -25.410287982978197,
        "lon": -145.164485420381,
        "alt_km": 715.4391470532437,
        "timestamp": "2025-12-22T23:36:21.003140+00:00",
        "meta_object_name": "FENGYUN 1C DEB",
        "meta_object_id": "1999-025ELL",
        "meta_epoch": "2025-12-15T20:50:38.916672",
        "meta_mean_motion": 13.64992638,
        "meta_eccentricity": 0.04654766,
        "meta_inclination": 98.2113,
        "meta_ra_of_asc_node": 32.72,
        "meta_arg_of_pericenter": 252.5094,
        "meta_mean_anomaly": 291.0319,
        "meta_ephemeris_type": 0,
        "meta_classification_type": "U",
        "meta_norad_cat_id": 37695,
        "meta_element_set_no": 999,
        "meta_rev_at_epoch": 89294,
        "meta_bstar": 0.00074996206,
        "meta_mean_motion_dot": 1.237e-05,
        "meta_mean_motion_ddot": 0,
        "tle_line1": "1 37695U 99025ELL 25349.86850598  .00001237  00000+0  74996-3 0  9997",
        "tle_line2": "2 37695  98.2113  32.7200 0465476 252.5094 291.0319 13.64992638892947"
      },
      "geometry": {
        "type": "Point",
        "coordinates": [
          -145.164485420381,
          -25.410287982978197
        ]
      }
    },
    {
      "type": "Feature",
      "properties": {
        "norad_id": 37704,
        "name": "FENGYUN 1C DEB",
        "group": "fengyun-1c-debris",
        "lat": 17.447499622542107,
        "lon": -173.87345054686733,
        "alt_km": 1118.0830481833746,
        "timestamp": "2025-12-22T23:36:21.003150+00:00",
        "meta_object_name": "FENGYUN 1C DEB",
        "meta_object_id": "1999-025ELV",
        "meta_epoch": "2025-12-10T18:58:47.253216",
        "meta_mean_motion": 13.70500661,
        "meta_eccentricity": 0.02401356,
        "meta_inclination": 98.3199,
        "meta_ra_of_asc_node": 178.1952,
        "meta_arg_of_pericenter": 184.1814,
        "meta_mean_anomaly": 190.5574,
        "meta_ephemeris_type": 0,
        "meta_classification_type": "U",
        "meta_norad_cat_id": 37704,
        "meta_element_set_no": 999,
        "meta_rev_at_epoch": 62338,
        "meta_bstar": 0.0019314833,
        "meta_mean_motion_dot": 2.062e-05,
        "meta_mean_motion_ddot": 0,
        "tle_line1": "1 37704U 99025ELV 25344.79082469  .00002062  00000+0  19315-2 0  9999",
        "tle_line2": "2 37704  98.3199 178.1952 0240135 184.1814 190.5574 13.70500661623389"
      },
      "geometry": {
        "type": "Point",
        "coordinates": [
          -173.87345054686733,
          17.447499622542107
        ]
      }
    },
    {
      "type": "Feature",
      "properties": {
        "norad_id": 37707,
        "name": "FENGYUN 1C DEB",
        "group": "fengyun-1c-debris",
        "lat": 49.57670521749523,
        "lon": -8.959223388259455,
        "alt_km": 640.129757314272,
        "timestamp": "2025-12-22T23:36:21.003160+00:00",
        "meta_object_name": "FENGYUN 1C DEB",
        "meta_object_id": "1999-025ELY",
        "meta_epoch": "2025-12-17T06:35:19.530240",
        "meta_mean_motion": 14.56477467,
        "meta_eccentricity": 0.01433735,
        "meta_inclination": 100.2206,
        "meta_ra_of_asc_node": 356.2824,
        "meta_arg_of_pericenter": 12.733,
        "meta_mean_anomaly": 358.6114,
        "meta_ephemeris_type": 0,
        "meta_classification_type": "U",
        "meta_norad_cat_id": 37707,
        "meta_element_set_no": 999,
        "meta_rev_at_epoch": 85632,
        "meta_bstar": 0.00056858098,
        "meta_mean_motion_dot": 2.832e-05,
        "meta_mean_motion_ddot": 0,
        "tle_line1": "1 37707U 99025ELY 25351.27453160  .00002832  00000+0  56858-3 0  9992",
        "tle_line2": "2 37707 100.2206 356.2824 0143373  12.7330 358.6114 14.56477467856327"
      },
      "geometry": {
        "type": "Point",
        "coordinates": [
          -8.959223388259455,
          49.57670521749523
        ]
      }
    },
    {
      "type": "Feature",
      "properties": {
        "norad_id": 37712,
        "name": "FENGYUN 1C DEB",
        "group": "fengyun-1c-debris",
        "lat": -57.222639513891586,
        "lon": -57.70914026884105,
        "alt_km": 771.9409580254951,
        "timestamp": "2025-12-22T23:36:21.003171+00:00",
        "meta_object_name": "FENGYUN 1C DEB",
        "meta_object_id": "1999-025EMD",
        "meta_epoch": "2025-12-21T03:52:22.322208",
        "meta_mean_motion": 14.3644777,
        "meta_eccentricity": 0.00788764,
        "meta_inclination": 98.8186,
        "meta_ra_of_asc_node": 134.3771,
        "meta_arg_of_pericenter": 328.6052,
        "meta_mean_anomaly": 212.8774,
        "meta_ephemeris_type": 0,
        "meta_classification_type": "U",
        "meta_norad_cat_id": 37712,
        "meta_element_set_no": 999,
        "meta_rev_at_epoch": 64081,
        "meta_bstar": 0.00029257715,
        "meta_mean_motion_dot": 8.41e-06,
        "meta_mean_motion_ddot": 0,
        "tle_line1": "1 37712U 99025EMD 25355.16136947  .00000841  00000+0  29258-3 0  9993",
        "tle_line2": "2 37712  98.8186 134.3771 0078876 328.6052 212.8774 14.36447770640813"
      },
      "geometry": {
        "type": "Point",
        "coordinates": [
          -57.70914026884105,
          -57.222639513891586
        ]
      }
    },
    {
      "type": "Feature",
      "properties": {
        "norad_id": 37714,
        "name": "FENGYUN 1C DEB",
        "group": "fengyun-1c-debris",
        "lat": -17.32693752877241,
        "lon": 111.74000961694419,
        "alt_km": 777.9809745324173,
        "timestamp": "2025-12-22T23:36:21.003181+00:00",
        "meta_object_name": "FENGYUN 1C DEB",
        "meta_object_id": "1999-025EMF",
        "meta_epoch": "2025-12-17T02:51:19.662912",
        "meta_mean_motion": 14.3227902,
        "meta_eccentricity": 0.00479393,
        "meta_inclination": 98.8925,
        "meta_ra_of_asc_node": 102.9292,
        "meta_arg_of_pericenter": 71.5277,
        "meta_mean_anomaly": 289.1107,
        "meta_ephemeris_type": 0,
        "meta_classification_type": "U",
        "meta_norad_cat_id": 37714,
        "meta_element_set_no": 999,
        "meta_rev_at_epoch": 57572,
        "meta_bstar": 0.0015552397,
        "meta_mean_motion_dot": 4.206e-05,
        "meta_mean_motion_ddot": 0,
        "tle_line1": "1 37714U 99025EMF 25351.11897758  .00004206  00000+0  15552-2 0  9990",
        "tle_line2": "2 37714  98.8925 102.9292 0047939  71.5277 289.1107 14.32279020575725"
      },
      "geometry": {
        "type": "Point",
        "coordinates": [
          111.74000961694419,
          -17.32693752877241
        ]
      }
    },
    {
      "type": "Feature",
      "properties": {
        "norad_id": 37715,
        "name": "FENGYUN 1C DEB",
        "group": "fengyun-1c-debris",
        "lat": -48.87602460133663,
        "lon": 174.0512446372593,
        "alt_km": 984.9576549040557,
        "timestamp": "2025-12-22T23:36:21.003192+00:00",
        "meta_object_name": "FENGYUN 1C DEB",
        "meta_object_id": "1999-025EMG",
        "meta_epoch": "2025-12-20T19:43:59.291328",
        "meta_mean_motion": 13.95423979,
        "meta_eccentricity": 0.01145273,
        "meta_inclination": 98.9554,
        "meta_ra_of_asc_node": 2.3565,
        "meta_arg_of_pericenter": 90.0552,
        "meta_mean_anomaly": 87.0761,
        "meta_ephemeris_type": 0,
        "meta_classification_type": "U",
        "meta_norad_cat_id": 37715,
        "meta_element_set_no": 999,
        "meta_rev_at_epoch": 57916,
        "meta_bstar": 0.00028530169,
        "meta_mean_motion_dot": 3.67e-06,
        "meta_mean_motion_ddot": 0,
        "tle_line1": "1 37715U 99025EMG 25354.82221402  .00000367  00000+0  28530-3 0  9994",
        "tle_line2": "2 37715  98.9554   2.3565 0114527  90.0552  87.0761 13.95423979579166"
      },
      "geometry": {
        "type": "Point",
        "coordinates": [
          174.0512446372593,
          -48.87602460133663
        ]
      }
    }
  ]
}